OBJECT_NAME,OBJECT_ID,EPOCH,MEAN_MOTION,ECCENTRICITY,INCLINATION,RA_OF_ASC_NODE,ARG_OF_PERICENTER,MEAN_ANOMALY,EPHEMERIS_TYPE,CLASSIFICATION_TYPE,NORAD_CAT_ID,ELEMENT_SET_NO,REV_AT_EPOCH,BSTAR,MEAN_MOTION_DOT,MEAN_MOTION_DDOT
STARLINK-36155,2025-286P,2026-07-16T22:36:44.631936,15.34400197,.0001246,53.1579,116.1198,98.1973,261.9171,0,U,66938,999,3523,.57225E-3,.19007E-3,0
STARLINK-36154,2025-286Q,2026-07-16T19:17:02.068224,15.34395888,.0001467,53.1576,116.6788,86.9831,273.1339,0,U,66939,999,3521,.4009E-3,.13191E-3,0
STARLINK-36121,2025-286R,2026-07-16T18:01:24.743712,15.34404739,.0001325,53.1583,117.0647,90.5098,269.6056,0,U,66940,999,3520,.60148E-3,.20003E-3,0
STARLINK-36088,2025-286S,2026-07-16T21:57:21.314592,15.34397321,.0001295,53.1590,115.9413,102.7164,257.3983,0,U,66941,999,3523,.3829E-3,.12581E-3,0
STARLINK-36100,2025-286T,2026-07-17T03:42:22.003776,15.34395629,.0001033,53.1601,115.3119,102.9011,257.2107,0,U,66942,999,3519,.48016E-3,.15879E-3,0
STARLINK-36109,2025-286U,2026-07-17T04:36:46.492992,15.34407025,.000115,53.1579,114.8355,84.8882,275.2252,0,U,66943,999,3520,.30091E-3,.9806E-4,0
STARLINK-36112,2025-286V,2026-07-16T22:09:28.595232,15.34393638,.0001565,53.1579,115.9984,95.4383,264.6798,0,U,66944,999,3523,.41679E-3,.13729E-3,0
STARLINK-36110,2025-286W,2026-07-17T03:39:20.046240,15.34395956,.0001209,53.1587,115.2974,106.1623,253.9512,0,U,66945,999,3526,.39315E-3,.12928E-3,0
STARLINK-36115,2025-286X,2026-07-16T02:26:29.049504,15.34405435,.00013649,53.1597,120.1173,76.3483,283.7671,0,U,66946,999,3510,.33861654E-3,.11083E-3,0
STARLINK-36089,2025-286Y,2026-07-17T03:48:26.191008,15.34397310,.0002584,53.1592,115.3335,76.0331,284.0959,0,U,66947,999,3526,.50543E-3,.16737E-3,0
STARLINK-36116,2025-286Z,2026-07-16T23:25:13.064160,15.34402061,.0001312,53.1588,116.3268,106.6699,253.4448,0,U,66948,999,3522,.53771E-3,.17836E-3,0
STARLINK-36096,2025-286AA,2026-07-17T04:18:35.865792,15.34399004,.0001165,53.1591,114.7564,89.4981,270.6155,0,U,66949,999,3527,.39858E-3,.13113E-3,0
STARLINK-36111,2025-286AB,2026-07-17T04:15:33.909120,15.34402850,.0000761,53.1584,114.7411,80.5524,279.5565,0,U,66950,999,3527,.58983E-3,.19606E-3,0
STARLINK-35999,2025-286AC,2026-07-17T03:36:18.867168,15.34402041,.0001334,53.1597,115.2808,95.9054,264.2101,0,U,66951,999,3526,.19793E-3,.6317E-4,0
STARLINK-36122,2025-286AD,2026-07-16T05:18:55.431360,15.34407641,.0001265,53.1586,119.4421,93.3699,266.7449,0,U,66952,999,3512,.24172E-3,.7801E-4,0
HULIANWANG DIGUI-114,2025-287A,2026-07-17T03:13:36.041952,13.24413489,.000228,86.4928,272.2479,97.9373,262.2020,0,U,66953,999,2930,.79422E-4,.49E-6,0
HULIANWANG DIGUI-115,2025-287B,2026-07-17T04:51:05.939712,13.24400966,.000257,86.4944,272.2545,95.1977,264.9450,0,U,66954,999,2931,.47194E-4,.35E-6,0
HULIANWANG DIGUI-116,2025-287C,2026-07-17T04:40:38.462304,13.24413192,.0002381,86.4884,272.1163,95.7295,264.4111,0,U,66955,999,2931,.50394E-4,.36E-6,0
HULIANWANG DIGUI-117,2025-287D,2026-07-17T04:29:48.569280,13.24412878,.0000941,86.4945,272.2488,65.7059,294.4173,0,U,66956,999,2931,.6134E-4,.41E-6,0
HULIANWANG DIGUI-118,2025-287E,2026-07-17T04:18:54.995616,13.24412337,.0002333,86.4921,272.1917,97.4509,262.6890,0,U,66957,999,2931,.81011E-4,.49E-6,0
STARLINK-35887,2025-288A,2026-07-16T19:04:37.466112,15.27581981,.0000951,43.0025,14.2351,281.5280,78.5465,0,U,66959,999,3503,.22323E-3,.5886E-4,0
STARLINK-35879,2025-288B,2026-07-16T13:08:21.454656,15.27587461,.000157,43.0026,15.8126,277.2260,82.8413,0,U,66960,999,3499,.43255E-3,.11662E-3,0
STARLINK-35761,2025-288C,2026-07-16T23:17:29.178240,15.27584686,.0001375,43.0009,12.9675,264.7800,95.2895,0,U,66961,999,3506,.35379E-3,.9487E-4,0
STARLINK-35874,2025-288D,2026-07-16T12:13:03.180576,15.27579865,.0001247,42.9996,16.3839,269.2666,90.8043,0,U,66962,999,3498,.32115E-3,.8586E-4,0
STARLINK-36133,2025-288E,2026-07-16T13:10:12.137376,15.27587779,.0001199,43.0026,15.8190,266.3875,93.6840,0,U,66963,999,3499,.4271E-3,.11512E-3,0
STARLINK-36104,2025-288F,2026-07-16T21:25:01.540416,15.27571704,.0002192,43.0015,14.1028,259.0225,101.0380,0,U,66964,999,3504,.38906E-3,.10457E-3,0
STARLINK-36067,2025-288G,2026-07-17T04:00:01.998720,15.27600653,.000152,43.0012,12.0129,270.0584,26.6230,0,U,66965,999,585,-.14564E-2,-.40149E-3,0
STARLINK-36139,2025-288H,2026-07-16T12:36:53.726112,15.27572040,.0001107,43.0009,15.6478,266.8035,93.2690,0,U,66966,999,3499,.841E-3,.22947E-3,0
STARLINK-36136,2025-288J,2026-07-16T19:08:19.140000,15.27601161,.0002338,43.0049,14.2458,281.1897,78.8691,0,U,66967,999,3503,.58836E-3,.15974E-3,0
STARLINK-36152,2025-288K,2026-07-16T19:41:37.425984,15.27576040,.0001789,43.0078,14.4206,252.3479,107.7177,0,U,66968,999,3503,.32792E-3,.8771E-4,0
