STARLINK-36155          
1 66938U 25286P   26197.94218324  .00019007  00000+0  57225-3 0  9993
2 66938  53.1579 116.1198 0001246  98.1973 261.9171 15.34400197 35235
STARLINK-36154          
1 66939U 25286Q   26197.80349616  .00013191  00000+0  40090-3 0  9998
2 66939  53.1576 116.6788 0001467  86.9831 273.1339 15.34395888 35215
STARLINK-36121          
1 66940U 25286R   26197.75098083  .00020003  00000+0  60148-3 0  9999
2 66940  53.1583 117.0647 0001325  90.5098 269.6056 15.34404739 35204
STARLINK-36088          
1 66941U 25286S   26197.91483003  .00012581  00000+0  38290-3 0  9993
2 66941  53.1590 115.9413 0001295 102.7164 257.3983 15.34397321 35231
STARLINK-36100          
1 66942U 25286T   26198.15442134  .00015879  00000+0  48016-3 0  9991
2 66942  53.1601 115.3119 0001033 102.9011 257.2107 15.34395629 35196
STARLINK-36109          
1 66943U 25286U   26198.19220478  .00009806  00000+0  30091-3 0  9998
2 66943  53.1579 114.8355 0001150  84.8882 275.2252 15.34407025 35208
STARLINK-36112          
1 66944U 25286V   26197.92324763  .00013729  00000+0  41679-3 0  9994
2 66944  53.1579 115.9984 0001565  95.4383 264.6798 15.34393638 35237
STARLINK-36110          
1 66945U 25286W   26198.15231535  .00012928  00000+0  39315-3 0  9999
2 66945  53.1587 115.2974 0001209 106.1623 253.9512 15.34395956 35264
STARLINK-36115          
1 66946U 25286X   26197.10172511  .00011083  00000+0  33862-3 0  9994
2 66946  53.1597 120.1173 0001364  76.3483 283.7671 15.34405435 35100
STARLINK-36089          
1 66947U 25286Y   26198.15863647  .00016737  00000+0  50543-3 0  9994
2 66947  53.1592 115.3335 0002584  76.0331 284.0959 15.34397310 35268
STARLINK-36116          
1 66948U 25286Z   26197.97584565  .00017836  00000+0  53771-3 0  9990
2 66948  53.1588 116.3268 0001312 106.6699 253.4448 15.34402061 35224
STARLINK-36096          
1 66949U 25286AA  26198.17958178  .00013113  00000+0  39858-3 0  9993
2 66949  53.1591 114.7564 0001165  89.4981 270.6155 15.34399004 35271
STARLINK-36111          
1 66950U 25286AB  26198.17747580  .00019606  00000+0  58983-3 0  9991
2 66950  53.1584 114.7411 0000761  80.5524 279.5565 15.34402850 35279
STARLINK-35999          
1 66951U 25286AC  26198.15021837  .00006317  00000+0  19793-3 0  9991
2 66951  53.1597 115.2808 0001334  95.9054 264.2101 15.34402041 35263
STARLINK-36122          
1 66952U 25286AD  26197.22147490  .00007801  00000+0  24172-3 0  9999
2 66952  53.1586 119.4421 0001265  93.3699 266.7449 15.34407641 35127
HULIANWANG DIGUI-114    
1 66953U 25287A   26198.13444493  .00000049  00000+0  79422-4 0  9991
2 66953  86.4928 272.2479 0002280  97.9373 262.2020 13.24413489 29308
HULIANWANG DIGUI-115    
1 66954U 25287B   26198.20215208  .00000035  00000+0  47194-4 0  9996
2 66954  86.4944 272.2545 0002570  95.1977 264.9450 13.24400966 29316
HULIANWANG DIGUI-116    
1 66955U 25287C   26198.19488961  .00000036  00000+0  50394-4 0  9990
2 66955  86.4884 272.1163 0002381  95.7295 264.4111 13.24413192 29318
HULIANWANG DIGUI-117    
1 66956U 25287D   26198.18736770  .00000041  00000+0  61340-4 0  9993
2 66956  86.4945 272.2488 0000941  65.7059 294.4173 13.24412878 29314
HULIANWANG DIGUI-118    
1 66957U 25287E   26198.17980319  .00000049  00000+0  81011-4 0  9998
2 66957  86.4921 272.1917 0002333  97.4509 262.6890 13.24412337 29317
STARLINK-35887          
1 66959U 25288A   26197.79487808  .00005886  00000+0  22323-3 0  9997
2 66959  43.0025  14.2351 0000951 281.5280  78.5465 15.27581981 35031
STARLINK-35879          
1 66960U 25288B   26197.54747054  .00011662  00000+0  43255-3 0  9990
2 66960  43.0026  15.8126 0001570 277.2260  82.8413 15.27587461 34993
STARLINK-35761          
1 66961U 25288C   26197.97047660  .00009487  00000+0  35379-3 0  9994
2 66961  43.0009  12.9675 0001375 264.7800  95.2895 15.27584686 35063
STARLINK-35874          
1 66962U 25288D   26197.50906459  .00008586  00000+0  32115-3 0  9998
2 66962  42.9996  16.3839 0001247 269.2666  90.8043 15.27579865 34984
STARLINK-36133          
1 66963U 25288E   26197.54875159  .00011512  00000+0  42710-3 0  9990
2 66963  43.0026  15.8190 0001199 266.3875  93.6840 15.27587779 34991
STARLINK-36104          
1 66964U 25288F   26197.89237894  .00010457  00000+0  38906-3 0  9996
2 66964  43.0015  14.1028 0002192 259.0225 101.0380 15.27571704 35045
STARLINK-36067          
1 66965U 25288G   26198.16668980 -.00040149  00000+0 -14564-2 0  9998
2 66965  43.0012  12.0129 0001520 270.0584  26.6230 15.27600653  5855
STARLINK-36139          
1 66966U 25288H   26197.52562183  .00022947  00000+0  84100-3 0  9994
2 66966  43.0009  15.6478 0001107 266.8035  93.2690 15.27572040 34998
STARLINK-36136          
1 66967U 25288J   26197.79744375  .00015974  00000+0  58836-3 0  9998
2 66967  43.0049  14.2458 0002338 281.1897  78.8691 15.27601161 35032
STARLINK-36152          
1 66968U 25288K   26197.82057206  .00008771  00000+0  32792-3 0  9993
2 66968  43.0078  14.4206 0001789 252.3479 107.7177 15.27576040 35031
